{
    "links": {
        "self": "http://www.neowsapp.com/rest/v1/neo/3976540?api_key=iIulBulltgU6a56xZRHN4H3l9WmuAYTsLGpBGhQ2"
    },
    "id": "3976540",
    "neo_reference_id": "3976540",
    "name": "(2020 AW1)",
    "designation": "2020 AW1",
    "nasa_jpl_url": "http://ssd.jpl.nasa.gov/sbdb.cgi?sstr=3976540",
    "absolute_magnitude_h": 25.4,
    "estimated_diameter": {
        "kilometers": {
            "estimated_diameter_min": 0.022108281,
            "estimated_diameter_max": 0.0494356193
        },
        "meters": {
            "estimated_diameter_min": 22.1082810359,
            "estimated_diameter_max": 49.435619262
        },
        "miles": {
            "estimated_diameter_min": 0.0137374447,
            "estimated_diameter_max": 0.0307178602
        },
        "feet": {
            "estimated_diameter_min": 72.5337327539,
            "estimated_diameter_max": 162.1903570994
        }
    },
    "is_potentially_hazardous_asteroid": false,
    "close_approach_data": [
        {
            "close_approach_date": "2020-01-15",
            "close_approach_date_full": "2020-Jan-15 03:32",
            "epoch_date_close_approach": 1579059120000,
            "relative_velocity": {
                "kilometers_per_second": "6.8379312669",
                "kilometers_per_hour": "24616.5525607097",
                "miles_per_hour": "15295.7684508476"
            },
            "miss_distance": {
                "astronomical": "0.0646518313",
                "lunar": "25.1495623757",
                "kilometers": "9671776.254079331",
                "miles": "6009763.0878675278"
            },
            "orbiting_body": "Earth"
        }
    ],
    "orbital_data": {
        "orbit_id": "5",
        "orbit_determination_date": "2020-01-23 10:55:20",
        "first_observation_date": "2020-01-04",
        "last_observation_date": "2020-01-23",
        "data_arc_in_days": 19,
        "observations_used": 50,
        "orbit_uncertainty": "8",
        "minimum_orbit_intersection": ".0567366",
        "jupiter_tisserand_invariant": "3.554",
        "epoch_osculation": "2458856.5",
        "eccentricity": ".512543541255626",
        "semi_major_axis": "2.113702932740605",
        "inclination": "3.761768683472177",
        "ascending_node_longitude": "94.80117044120394",
        "orbital_period": "1122.443144707856",
        "perihelion_distance": "1.030338146431333",
        "perihelion_argument": "32.82934521114608",
        "aphelion_distance": "3.197067719049877",
        "perihelion_time": "2458874.036608837219",
        "mean_anomaly": "354.3755020366381",
        "mean_motion": ".3207289399889373",
        "equinox": "J2000",
        "orbit_class": {
            "orbit_class_type": "AMO",
            "orbit_class_description": "Near-Earth asteroid orbits similar to that of 1221 Amor",
            "orbit_class_range": "1.017 AU < q (perihelion) < 1.3 AU"
        }
    },
    "is_sentry_object": false
}